{
  "type": "FeatureCollection",
  "features": [
    {
      "type": "Feature",
      "properties": {
        "norad_id": 33860,
        "name": "IRIDIUM 33 DEB",
        "group": "iridium-33-debris",
        "lat": -48.169815145777356,
        "lon": 16.52746089825748,
        "alt_km": 671.8922696893605,
        "timestamp": "2025-12-27T18:38:03.862283+00:00",
        "meta_object_name": "IRIDIUM 33 DEB",
        "meta_object_id": "1997-051AD",
        "meta_epoch": "2025-12-27T07:27:44.771904",
        "meta_mean_motion": 14.67547387,
        "meta_eccentricity": 0.0005777,
        "meta_inclination": 86.3828,
        "meta_ra_of_asc_node": 20.7863,
        "meta_arg_of_pericenter": 298.5485,
        "meta_mean_anomaly": 75.5112,
        "meta_ephemeris_type": 0,
        "meta_classification_type": "U",
        "meta_norad_cat_id": 33860,
        "meta_element_set_no": 999,
        "meta_rev_at_epoch": 88936,
        "meta_bstar": 0.0012984,
        "meta_mean_motion_dot": 7.389e-05,
        "meta_mean_motion_ddot": 0,
        "tle_line1": "1 33860U 97051AD  25361.31093486  .00007389  00000+0  12984-2 0  9995",
        "tle_line2": "2 33860  86.3828  20.7863 0005777 298.5485  75.5112 14.67547387889367"
      },
      "geometry": {
        "type": "Point",
        "coordinates": [
          16.52746089825748,
          -48.169815145777356
        ]
      }
    },
    {
      "type": "Feature",
      "properties": {
        "norad_id": 33862,
        "name": "IRIDIUM 33 DEB",
        "group": "iridium-33-debris",
        "lat": 76.35839345669422,
        "lon": -164.10142283781863,
        "alt_km": 651.1840738803567,
        "timestamp": "2025-12-27T18:38:03.862295+00:00",
        "meta_object_name": "IRIDIUM 33 DEB",
        "meta_object_id": "1997-051AF",
        "meta_epoch": "2025-12-27T12:10:45.109056",
        "meta_mean_motion": 14.69721797,
        "meta_eccentricity": 0.0051749,
        "meta_inclination": 86.4084,
        "meta_ra_of_asc_node": 31.0161,
        "meta_arg_of_pericenter": 19.5043,
        "meta_mean_anomaly": 100.8715,
        "meta_ephemeris_type": 0,
        "meta_classification_type": "U",
        "meta_norad_cat_id": 33862,
        "meta_element_set_no": 999,
        "meta_rev_at_epoch": 89040,
        "meta_bstar": 0.0016939,
        "meta_mean_motion_dot": 0.0001033,
        "meta_mean_motion_ddot": 0,
        "tle_line1": "1 33862U 97051AF  25361.50746654  .00010330  00000+0  16939-2 0  9994",
        "tle_line2": "2 33862  86.4084  31.0161 0051749  19.5043 100.8715 14.69721797890400"
      },
      "geometry": {
        "type": "Point",
        "coordinates": [
          -164.10142283781863,
          76.35839345669422
        ]
      }
    },
    {
      "type": "Feature",
      "properties": {
        "norad_id": 33866,
        "name": "IRIDIUM 33 DEB",
        "group": "iridium-33-debris",
        "lat": -66.18704336998444,
        "lon": 78.24230706502914,
        "alt_km": 897.5697280394425,
        "timestamp": "2025-12-27T18:38:03.862306+00:00",
        "meta_object_name": "IRIDIUM 33 DEB",
        "meta_object_id": "1997-051AK",
        "meta_epoch": "2025-12-27T07:29:19.729824",
        "meta_mean_motion": 14.25320809,
        "meta_eccentricity": 0.0115259,
        "meta_inclination": 86.2998,
        "meta_ra_of_asc_node": 86.8706,
        "meta_arg_of_pericenter": 115.2237,
        "meta_mean_anomaly": 316.9491,
        "meta_ephemeris_type": 0,
        "meta_classification_type": "U",
        "meta_norad_cat_id": 33866,
        "meta_element_set_no": 999,
        "meta_rev_at_epoch": 87018,
        "meta_bstar": 0.00066919,
        "meta_mean_motion_dot": 1.709e-05,
        "meta_mean_motion_ddot": 0,
        "tle_line1": "1 33866U 97051AK  25361.31203391  .00001709  00000+0  66919-3 0  9997",
        "tle_line2": "2 33866  86.2998  86.8706 0115259 115.2237 316.9491 14.25320809870180"
      },
      "geometry": {
        "type": "Point",
        "coordinates": [
          78.24230706502914,
          -66.18704336998444
        ]
      }
    },
    {
      "type": "Feature",
      "properties": {
        "norad_id": 33870,
        "name": "IRIDIUM 33 DEB",
        "group": "iridium-33-debris",
        "lat": 64.72955620550806,
        "lon": 59.53568102669125,
        "alt_km": 726.0017330765068,
        "timestamp": "2025-12-27T18:38:03.862317+00:00",
        "meta_object_name": "IRIDIUM 33 DEB",
        "meta_object_id": "1997-051AP",
        "meta_epoch": "2025-12-27T10:06:56.857824",
        "meta_mean_motion": 14.45923919,
        "meta_eccentricity": 0.002282,
        "meta_inclination": 86.3732,
        "meta_ra_of_asc_node": 51.9664,
        "meta_arg_of_pericenter": 131.7258,
        "meta_mean_anomaly": 247.1218,
        "meta_ephemeris_type": 0,
        "meta_classification_type": "U",
        "meta_norad_cat_id": 33870,
        "meta_element_set_no": 999,
        "meta_rev_at_epoch": 88349,
        "meta_bstar": 0.00073817,
        "meta_mean_motion_dot": 2.652e-05,
        "meta_mean_motion_ddot": 0,
        "tle_line1": "1 33870U 97051AP  25361.42149141  .00002652  00000+0  73817-3 0  9999",
        "tle_line2": "2 33870  86.3732  51.9664 0022820 131.7258 247.1218 14.45923919883498"
      },
      "geometry": {
        "type": "Point",
        "coordinates": [
          59.53568102669125,
          64.72955620550806
        ]
      }
    },
    {
      "type": "Feature",
      "properties": {
        "norad_id": 33881,
        "name": "IRIDIUM 33 DEB",
        "group": "iridium-33-debris",
        "lat": 21.163978041830205,
        "lon": -81.19610985203349,
        "alt_km": 666.941817788831,
        "timestamp": "2025-12-27T18:38:03.862328+00:00",
        "meta_object_name": "IRIDIUM 33 DEB",
        "meta_object_id": "1997-051BA",
        "meta_epoch": "2025-12-27T06:38:24.101376",
        "meta_mean_motion": 14.56845327,
        "meta_eccentricity": 0.0060965,
        "meta_inclination": 86.3853,
        "meta_ra_of_asc_node": 100.4236,
        "meta_arg_of_pericenter": 127.5949,
        "meta_mean_anomaly": 291.3,
        "meta_ephemeris_type": 0,
        "meta_classification_type": "U",
        "meta_norad_cat_id": 33881,
        "meta_element_set_no": 999,
        "meta_rev_at_epoch": 87712,
        "meta_bstar": 0.0023748,
        "meta_mean_motion_dot": 0.00010941,
        "meta_mean_motion_ddot": 0,
        "tle_line1": "1 33881U 97051BA  25361.27666784  .00010941  00000+0  23748-2 0  9998",
        "tle_line2": "2 33881  86.3853 100.4236 0060965 127.5949 291.3000 14.56845327877122"
      },
      "geometry": {
        "type": "Point",
        "coordinates": [
          -81.19610985203349,
          21.163978041830205
        ]
      }
    },
    {
      "type": "Feature",
      "properties": {
        "norad_id": 33884,
        "name": "IRIDIUM 33 DEB",
        "group": "iridium-33-debris",
        "lat": 27.011242186362,
        "lon": -178.8248253919151,
        "alt_km": 637.7278010261007,
        "timestamp": "2025-12-27T18:38:03.862339+00:00",
        "meta_object_name": "IRIDIUM 33 DEB",
        "meta_object_id": "1997-051BD",
        "meta_epoch": "2025-12-27T10:23:21.766848",
        "meta_mean_motion": 14.77732617,
        "meta_eccentricity": 0.0008722,
        "meta_inclination": 86.3707,
        "meta_ra_of_asc_node": 3.1844,
        "meta_arg_of_pericenter": 265.1061,
        "meta_mean_anomaly": 221.4184,
        "meta_ephemeris_type": 0,
        "meta_classification_type": "U",
        "meta_norad_cat_id": 33884,
        "meta_element_set_no": 999,
        "meta_rev_at_epoch": 89064,
        "meta_bstar": 0.0017477,
        "meta_mean_motion_dot": 0.00012569,
        "meta_mean_motion_ddot": 0,
        "tle_line1": "1 33884U 97051BD  25361.43289082  .00012569  00000+0  17477-2 0  9991",
        "tle_line2": "2 33884  86.3707   3.1844 0008722 265.1061 221.4184 14.77732617890643"
      },
      "geometry": {
        "type": "Point",
        "coordinates": [
          -178.8248253919151,
          27.011242186362
        ]
      }
    },
    {
      "type": "Feature",
      "properties": {
        "norad_id": 33886,
        "name": "IRIDIUM 33 DEB",
        "group": "iridium-33-debris",
        "lat": -5.392967310872321,
        "lon": 60.556728092609,
        "alt_km": 784.7560473026888,
        "timestamp": "2025-12-27T18:38:03.862350+00:00",
        "meta_object_name": "IRIDIUM 33 DEB",
        "meta_object_id": "1997-051BF",
        "meta_epoch": "2025-12-27T03:52:21.169632",
        "meta_mean_motion": 14.36068773,
        "meta_eccentricity": 0.00137205,
        "meta_inclination": 86.3818,
        "meta_ra_of_asc_node": 61.1579,
        "meta_arg_of_pericenter": 190.8914,
        "meta_mean_anomaly": 225.9418,
        "meta_ephemeris_type": 0,
        "meta_classification_type": "U",
        "meta_norad_cat_id": 33886,
        "meta_element_set_no": 999,
        "meta_rev_at_epoch": 88259,
        "meta_bstar": 0.00021197521,
        "meta_mean_motion_dot": 6.37e-06,
        "meta_mean_motion_ddot": 0,
        "tle_line1": "1 33886U 97051BF  25361.16135613  .00000637  00000+0  21198-3 0  9992",
        "tle_line2": "2 33886  86.3818  61.1579 0013720 190.8914 225.9418 14.36068773882596"
      },
      "geometry": {
        "type": "Point",
        "coordinates": [
          60.556728092609,
          -5.392967310872321
        ]
      }
    }
  ]
}